[
  {
    "OBJECT_NAME": "SCD 1",
    "OBJECT_ID": "1993-009B",
    "EPOCH": "2025-06-28T19:43:45.600384",
    "MEAN_MOTION": 14.45867356,
    "ECCENTRICITY": 0.004211,
    "INCLINATION": 24.9684,
    "RA_OF_ASC_NODE": 228.9773,
    "ARG_OF_PERICENTER": 359.0734,
    "MEAN_ANOMALY": 163.168,
    "EPHEMERIS_TYPE": 0,
    "CLASSIFICATION_TYPE": "U",
    "NORAD_CAT_ID": 22490,
    "ELEMENT_SET_NO": 999,
    "REV_AT_EPOCH": 71031,
    "BSTAR": 3.5045e-05,
    "MEAN_MOTION_DOT": 3.12e-06,
    "MEAN_MOTION_DDOT": 0
  },
  {
    "OBJECT_NAME": "TECHSAT 1B (GO-32)",
    "OBJECT_ID": "1998-043D",
    "EPOCH": "2025-06-28T12:26:35.536704",
    "MEAN_MOTION": 14.24318934,
    "ECCENTRICITY": 0.0002008,
    "INCLINATION": 98.9711,
    "RA_OF_ASC_NODE": 159.0337,
    "ARG_OF_PERICENTER": 125.1227,
    "MEAN_ANOMALY": 235.0139,
    "EPHEMERIS_TYPE": 0,
    "CLASSIFICATION_TYPE": "U",
    "NORAD_CAT_ID": 25397,
    "ELEMENT_SET_NO": 999,
    "REV_AT_EPOCH": 40098,
    "BSTAR": 3.2261e-05,
    "MEAN_MOTION_DOT": 2.8e-07,
    "MEAN_MOTION_DDOT": 0
  },
  {
    "OBJECT_NAME": "SCD 2",
    "OBJECT_ID": "1998-060A",
    "EPOCH": "2025-06-28T11:22:00.096672",
    "MEAN_MOTION": 14.45305301,
    "ECCENTRICITY": 0.0016724,
    "INCLINATION": 24.9952,
    "RA_OF_ASC_NODE": 93.1405,
    "ARG_OF_PERICENTER": 346.5829,
    "MEAN_ANOMALY": 174.2853,
    "EPHEMERIS_TYPE": 0,
    "CLASSIFICATION_TYPE": "U",
    "NORAD_CAT_ID": 25504,
    "ELEMENT_SET_NO": 999,
    "REV_AT_EPOCH": 40909,
    "BSTAR": 3.9421e-05,
    "MEAN_MOTION_DOT": 3.22e-06,
    "MEAN_MOTION_DDOT": 0
  },
  {
    "OBJECT_NAME": "DLR-TUBSAT",
    "OBJECT_ID": "1999-029B",
    "EPOCH": "2025-06-28T20:51:04.513536",
    "MEAN_MOTION": 14.52277153,
    "ECCENTRICITY": 0.0014001,
    "INCLINATION": 98.636,
    "RA_OF_ASC_NODE": 159.3995,
    "ARG_OF_PERICENTER": 349.6283,
    "MEAN_ANOMALY": 10.4621,
    "EPHEMERIS_TYPE": 0,
    "CLASSIFICATION_TYPE": "U",
    "NORAD_CAT_ID": 25757,
    "ELEMENT_SET_NO": 999,
    "REV_AT_EPOCH": 38206,
    "BSTAR": 2.2778e-05,
    "MEAN_MOTION_DOT": 4.4e-07,
    "MEAN_MOTION_DDOT": 0
  },
  {
    "OBJECT_NAME": "TERRA",
    "OBJECT_ID": "1999-068A",
    "EPOCH": "2025-06-28T19:39:12.106368",
    "MEAN_MOTION": 14.60720128,
    "ECCENTRICITY": 8.73e-05,
    "INCLINATION": 97.9974,
    "RA_OF_ASC_NODE": 237.3864,
    "ARG_OF_PERICENTER": 251.0502,
    "MEAN_ANOMALY": 216.1797,
    "EPHEMERIS_TYPE": 0,
    "CLASSIFICATION_TYPE": "U",
    "NORAD_CAT_ID": 25994,
    "ELEMENT_SET_NO": 999,
    "REV_AT_EPOCH": 35813,
    "BSTAR": 6.292e-05,
    "MEAN_MOTION_DOT": 2.62e-06,
    "MEAN_MOTION_DDOT": 0
  },
  {
    "OBJECT_NAME": "MAROC-TUBSAT",
    "OBJECT_ID": "2001-056D",
    "EPOCH": "2025-06-28T10:52:29.642304",
    "MEAN_MOTION": 13.70243364,
    "ECCENTRICITY": 0.0019398,
    "INCLINATION": 99.7794,
    "RA_OF_ASC_NODE": 345.0731,
    "ARG_OF_PERICENTER": 331.1594,
    "MEAN_ANOMALY": 89.9633,
    "EPHEMERIS_TYPE": 0,
    "CLASSIFICATION_TYPE": "U",
    "NORAD_CAT_ID": 27004,
    "ELEMENT_SET_NO": 999,
    "REV_AT_EPOCH": 17774,
    "BSTAR": 9.4886e-06,
    "MEAN_MOTION_DOT": -3.8e-07,
    "MEAN_MOTION_DDOT": 0
  },
  {
    "OBJECT_NAME": "AQUA",
    "OBJECT_ID": "2002-022A",
    "EPOCH": "2025-06-28T22:00:43.959744",
    "MEAN_MOTION": 14.61322459,
    "ECCENTRICITY": 0.000167,
    "INCLINATION": 98.3783,
    "RA_OF_ASC_NODE": 138.4158,
    "ARG_OF_PERICENTER": 58.4705,
    "MEAN_ANOMALY": 9.4039,
    "EPHEMERIS_TYPE": 0,
    "CLASSIFICATION_TYPE": "U",
    "NORAD_CAT_ID": 27424,
    "ELEMENT_SET_NO": 999,
    "REV_AT_EPOCH": 23170,
    "BSTAR": 0.00011742,
    "MEAN_MOTION_DOT": 5.31e-06,
    "MEAN_MOTION_DDOT": 0
  },
  {
    "OBJECT_NAME": "IRS-P6 (RESOURCESAT-1)",
    "OBJECT_ID": "2003-046A",
    "EPOCH": "2025-06-28T20:14:20.029632",
    "MEAN_MOTION": 14.35985184,
    "ECCENTRICITY": 0.0063395,
    "INCLINATION": 98.2399,
    "RA_OF_ASC_NODE": 227.7328,
    "ARG_OF_PERICENTER": 322.9011,
    "MEAN_ANOMALY": 125.4537,
    "EPHEMERIS_TYPE": 0,
    "CLASSIFICATION_TYPE": "U",
    "NORAD_CAT_ID": 28051,
    "ELEMENT_SET_NO": 999,
    "REV_AT_EPOCH": 12984,
    "BSTAR": 3.4965e-05,
    "MEAN_MOTION_DOT": 6.2e-07,
    "MEAN_MOTION_DDOT": 0
  },
  {
    "OBJECT_NAME": "SHIYAN-1 (SY-1)",
    "OBJECT_ID": "2004-012A",
    "EPOCH": "2025-06-28T14:00:04.948704",
    "MEAN_MOTION": 15.23422984,
    "ECCENTRICITY": 0.0007655,
    "INCLINATION": 97.9155,
    "RA_OF_ASC_NODE": 231.72,
    "ARG_OF_PERICENTER": 167.5679,
    "MEAN_ANOMALY": 192.5747,
    "EPHEMERIS_TYPE": 0,
    "CLASSIFICATION_TYPE": "U",
    "NORAD_CAT_ID": 28220,
    "ELEMENT_SET_NO": 999,
    "REV_AT_EPOCH": 15708,
    "BSTAR": 0.00025288,
    "MEAN_MOTION_DOT": 5.947e-05,
    "MEAN_MOTION_DDOT": 0
  },
  {
    "OBJECT_NAME": "AURA",
    "OBJECT_ID": "2004-026A",
    "EPOCH": "2025-06-28T20:23:02.137056",
    "MEAN_MOTION": 14.6046311,
    "ECCENTRICITY": 0.0001442,
    "INCLINATION": 98.2947,
    "RA_OF_ASC_NODE": 129.6317,
    "ARG_OF_PERICENTER": 69.3385,
    "MEAN_ANOMALY": 290.797,
    "EPHEMERIS_TYPE": 0,
    "CLASSIFICATION_TYPE": "U",
    "NORAD_CAT_ID": 28376,
    "ELEMENT_SET_NO": 999,
    "REV_AT_EPOCH": 11466,
    "BSTAR": 0.00011857,
    "MEAN_MOTION_DOT": 5.27e-06,
    "MEAN_MOTION_DDOT": 0
  },
  {
    "OBJECT_NAME": "IRS-P5 (CARTOSAT-1)",
    "OBJECT_ID": "2005-017A",
    "EPOCH": "2025-06-28T14:23:08.108160",
    "MEAN_MOTION": 14.8970612,
    "ECCENTRICITY": 0.0002301,
    "INCLINATION": 97.566,
    "RA_OF_ASC_NODE": 213.288,
    "ARG_OF_PERICENTER": 117.9348,
    "MEAN_ANOMALY": 242.2104,
    "EPHEMERIS_TYPE": 0,
    "CLASSIFICATION_TYPE": "U",
    "NORAD_CAT_ID": 28649,
    "ELEMENT_SET_NO": 999,
    "REV_AT_EPOCH": 9115,
    "BSTAR": 9.3489e-05,
    "MEAN_MOTION_DOT": 8.43e-06,
    "MEAN_MOTION_DDOT": 0
  },
  {
    "OBJECT_NAME": "SINAH 1",
    "OBJECT_ID": "2005-043D",
    "EPOCH": "2025-06-28T18:14:37.660704",
    "MEAN_MOTION": 14.63731603,
    "ECCENTRICITY": 0.0013418,
    "INCLINATION": 98.2398,
    "RA_OF_ASC_NODE": 308.1293,
    "ARG_OF_PERICENTER": 306.4882,
    "MEAN_ANOMALY": 53.5084,
    "EPHEMERIS_TYPE": 0,
    "CLASSIFICATION_TYPE": "U",
    "NORAD_CAT_ID": 28893,
    "ELEMENT_SET_NO": 999,
    "REV_AT_EPOCH": 4905,
    "BSTAR": 4.8059e-05,
    "MEAN_MOTION_DOT": 2.02e-06,
    "MEAN_MOTION_DDOT": 0
  },
  {
    "OBJECT_NAME": "EROS B",
    "OBJECT_ID": "2006-014A",
    "EPOCH": "2025-06-28T18:22:27.405408",
    "MEAN_MOTION": 15.40683367,
    "ECCENTRICITY": 0.0003544,
    "INCLINATION": 97.3478,
    "RA_OF_ASC_NODE": 292.983,
    "ARG_OF_PERICENTER": 352.6686,
    "MEAN_ANOMALY": 7.4508,
    "EPHEMERIS_TYPE": 0,
    "CLASSIFICATION_TYPE": "U",
    "NORAD_CAT_ID": 29079,
    "ELEMENT_SET_NO": 999,
    "REV_AT_EPOCH": 6494,
    "BSTAR": 0.00057399,
    "MEAN_MOTION_DOT": 0.00023383,
    "MEAN_MOTION_DDOT": 0
  },
  {
    "OBJECT_NAME": "RESURS-DK 1",
    "OBJECT_ID": "2006-021A",
    "EPOCH": "2025-06-28T09:37:05.876544",
    "MEAN_MOTION": 15.11027767,
    "ECCENTRICITY": 0.0004219,
    "INCLINATION": 69.9312,
    "RA_OF_ASC_NODE": 173.8593,
    "ARG_OF_PERICENTER": 191.8235,
    "MEAN_ANOMALY": 168.2832,
    "EPHEMERIS_TYPE": 0,
    "CLASSIFICATION_TYPE": "U",
    "NORAD_CAT_ID": 29228,
    "ELEMENT_SET_NO": 999,
    "REV_AT_EPOCH": 4909,
    "BSTAR": 9.2002e-05,
    "MEAN_MOTION_DOT": 1.435e-05,
    "MEAN_MOTION_DDOT": 0
  },
  {
    "OBJECT_NAME": "ARIRANG-2 (KOMPSAT-2)",
    "OBJECT_ID": "2006-031A",
    "EPOCH": "2025-06-28T20:27:04.283424",
    "MEAN_MOTION": 14.6431368,
    "ECCENTRICITY": 0.0015867,
    "INCLINATION": 97.8363,
    "RA_OF_ASC_NODE": 16.394,
    "ARG_OF_PERICENTER": 112.4202,
    "MEAN_ANOMALY": 306.5074,
    "EPHEMERIS_TYPE": 0,
    "CLASSIFICATION_TYPE": "U",
    "NORAD_CAT_ID": 29268,
    "ELEMENT_SET_NO": 999,
    "REV_AT_EPOCH": 986,
    "BSTAR": 4.5113e-05,
    "MEAN_MOTION_DOT": 1.94e-06,
    "MEAN_MOTION_DDOT": 0
  },
  {
    "OBJECT_NAME": "LAPAN-TUBSAT",
    "OBJECT_ID": "2007-001A",
    "EPOCH": "2025-06-28T19:09:09.728064",
    "MEAN_MOTION": 14.85357717,
    "ECCENTRICITY": 0.001092,
    "INCLINATION": 98.1099,
    "RA_OF_ASC_NODE": 166.6761,
    "ARG_OF_PERICENTER": 254.4258,
    "MEAN_ANOMALY": 105.5751,
    "EPHEMERIS_TYPE": 0,
    "CLASSIFICATION_TYPE": "U",
    "NORAD_CAT_ID": 29709,
    "ELEMENT_SET_NO": 999,
    "REV_AT_EPOCH": 99869,
    "BSTAR": 4.4056e-05,
    "MEAN_MOTION_DOT": 3.22e-06,
    "MEAN_MOTION_DDOT": 0
  },
  {
    "OBJECT_NAME": "HAIYANG-1B",
    "OBJECT_ID": "2007-010A",
    "EPOCH": "2025-06-28T13:02:36.754944",
    "MEAN_MOTION": 14.30897659,
    "ECCENTRICITY": 0.0013788,
    "INCLINATION": 98.3141,
    "RA_OF_ASC_NODE": 170.8601,
    "ARG_OF_PERICENTER": 164.615,
    "MEAN_ANOMALY": 195.5456,
    "EPHEMERIS_TYPE": 0,
    "CLASSIFICATION_TYPE": "U",
    "NORAD_CAT_ID": 31113,
    "ELEMENT_SET_NO": 999,
    "REV_AT_EPOCH": 95005,
    "BSTAR": 3.3448e-05,
    "MEAN_MOTION_DOT": 4.7e-07,
    "MEAN_MOTION_DDOT": 0
  },
  {
    "OBJECT_NAME": "COSMO-SKYMED 1",
    "OBJECT_ID": "2007-023A",
    "EPOCH": "2025-06-28T18:56:06.932832",
    "MEAN_MOTION": 14.9415131,
    "ECCENTRICITY": 0.0001437,
    "INCLINATION": 97.8875,
    "RA_OF_ASC_NODE": 4.2674,
    "ARG_OF_PERICENTER": 93.5339,
    "MEAN_ANOMALY": 266.6045,
    "EPHEMERIS_TYPE": 0,
    "CLASSIFICATION_TYPE": "U",
    "NORAD_CAT_ID": 31598,
    "ELEMENT_SET_NO": 999,
    "REV_AT_EPOCH": 97702,
    "BSTAR": 8.6524e-05,
    "MEAN_MOTION_DOT": 8.67e-06,
    "MEAN_MOTION_DDOT": 0
  },
  {
    "OBJECT_NAME": "TERRASAR-X",
    "OBJECT_ID": "2007-026A",
    "EPOCH": "2025-06-28T16:14:28.188096",
    "MEAN_MOTION": 15.19152047,
    "ECCENTRICITY": 0.0001652,
    "INCLINATION": 97.4458,
    "RA_OF_ASC_NODE": 187.44,
    "ARG_OF_PERICENTER": 87.4783,
    "MEAN_ANOMALY": 272.6641,
    "EPHEMERIS_TYPE": 0,
    "CLASSIFICATION_TYPE": "U",
    "NORAD_CAT_ID": 31698,
    "ELEMENT_SET_NO": 999,
    "REV_AT_EPOCH": 21,
    "BSTAR": 3.2284e-05,
    "MEAN_MOTION_DOT": 6.11e-06,
    "MEAN_MOTION_DDOT": 0
  }
]